satname,norad_id,inclination_deg,eccentricity,mean_motion_rev_per_day,perigee_km,apogee_km,l1,l2
STARLINK-1316,45415,53.1543,0.0006867,15.3651637,451.7268733824603,461.11345419120426,1 45415U 20019BH  26137.30813927  .00021092  00000+0  59208-3 0  9993,2 45415  53.1543 169.0185 0006867   2.6480 357.4558 15.36516370340527
STARLINK-1286,45417,53.0445,0.0003911,15.56413647,395.3962772789191,400.6966079677395,1 45417U 20019BK  26137.75626421  .00022945  00000+0  32490-3 0  9997,2 45417  53.0445 157.4412 0003911 353.4372   6.6587 15.56413647340965
STARLINK-1308,45419,53.0459,0.0008384,15.63067825,373.13637289218786,384.46640718460367,1 45419U 20019BM  26137.81271551  .00057367  00000+0  61936-3 0  9999,2 45419  53.0459 176.9090 0008384 335.9695  24.0927 15.63067825340448
STARLINK-1329,45531,53.0421,0.0005188,15.70334259,354.4462746903673,361.435629173292,1 45531U 20025A   26137.19952983  .00046241  00000+0  37434-3 0  9992,2 45531  53.0421 104.7717 0005188  64.4978 295.6575 15.70334259336181
STARLINK-1338,45532,53.0439,0.0004677,15.6565403,368.20169450168396,374.51517253019483,1 45532U 20025B   26137.34690645  .00034927  00000+0  34392-3 0  9992,2 45532  53.0439 109.8927 0004677  40.9837 319.1529 15.65654030336126
STARLINK-1350,45535,53.073,0.0001747,15.37715046,451.6745537177421,454.0613068403818,1 45535U 20025E   26137.52322105  .00006883  00000+0  19335-3 0  9998,2 45535  53.0730  69.4482 0001747  67.8671 292.2517 15.37715046336749
STARLINK-1362,45538,53.157,0.0002485,15.34954331,459.3566080175069,462.7556870118224,1 45538U 20025H   26137.59258356 -.00121771  00000+0 -35869-2 0  9999,2 45538  53.1570 139.8507 0002485  95.6514 264.4772 15.34954331335742
STARLINK-1368,45540,53.1564,0.0004591,15.35353541,456.7312530182262,463.0099115802932,1 45540U 20025K   26137.73658747  .00018382  00000+0  53727-3 0  9991,2 45540  53.1564 139.5538 0004591  45.6174 314.5204 15.35353541335751
STARLINK-1371,45542,53.0453,0.0007016,15.58260749,387.9401544321572,397.4409796742457,1 45542U 20025M   26137.67606784  .00050719  00000+0  65992-3 0  9997,2 45542  53.0453 116.9361 0007016  43.3145 316.8417 15.58260749336057
STARLINK-1372,45543,53.1557,0.0004396,15.35860216,455.3612824989077,461.37193647236654,1 45543U 20025N   26137.70231617  .00026224  00000+0  74885-3 0  9996,2 45543  53.1557 139.2916 0004396  41.1684 318.9650 15.35860216334858
STARLINK-1373,45544,53.0451,0.0004347,15.67348258,363.5617461599786,369.42552803587114,1 45544U 20025P   26137.64505618  .00033791  00000+0  31110-3 0  9996,2 45544  53.0451 113.9455 0004347  19.7126 340.4057 15.67348258336097
STARLINK-1327,45555,53.0419,0.0005306,15.65086115,369.40895673090654,376.5732538762559,1 45555U 20025AA  26137.84625206  .00033069  00000+0  33337-3 0  9997,2 45555  53.0419  89.7527 0005306  24.9565 335.1705 15.65086115336443
STARLINK-1356,45564,53.0449,0.0004026,15.54876004,399.7832046638896,405.24298411989366,1 45564U 20025AK  26137.20231247  .00044784  00000+0  66233-3 0  9992,2 45564  53.0449 105.0285 0004026  28.2943 331.8285 15.54876004336172
STARLINK-1357,45565,53.0462,0.0007842,15.66884503,362.5342061250958,373.11457196767697,1 45565U 20025AL  26137.16301824  .00039328  00000+0  36743-3 0  9998,2 45565  53.0462  63.3097 0007842  58.1946 301.9832 15.66884503336766
STARLINK-1361,45567,53.044,0.000221,15.58637807,390.10243457383694,393.0946576852257,1 45567U 20025AN  26137.85227978  .00058557  00000+0  75010-3 0  9998,2 45567  53.0440 100.3099 0002210  29.7691 330.3446 15.58637807336304
STARLINK-1363,45568,53.0322,0.0002701,16.03712257,262.35447589936666,265.94263855738245,1 45568U 20025AP  26137.80752421  .00361430  69588-4  55786-3 0  9996,2 45568  53.0322  46.7637 0002701 211.2626 148.8244 16.03712257337039
STARLINK-1366,45569,53.0338,0.000109,15.97914997,279.4786415682629,280.9301599936325,1 45569U 20025AQ  26137.91670139  .00193809  26362-4  42193-3 0  9998,2 45569  53.0338  48.2585 0001090 198.5255  88.8693 15.97914997  6032
STARLINK-1376,45570,53.1561,0.0005639,15.36180346,453.56221910017666,461.2713566621478,1 45570U 20025AR  26137.35866433  .00022612  00000+0  64082-3 0  9992,2 45570  53.1561 117.3544 0005639  39.5678 320.5736 15.36180346336038
STARLINK-1320,45572,53.0454,0.0003683,15.80899985,325.4244937475769,330.3641564216341,1 45572U 20025AT  26137.35087597  .00079218  00000+0  40055-3 0  9998,2 45572  53.0454   3.8594 0003683 231.7689 128.3001 15.80899985337629
STARLINK-1321,45573,53.0434,0.0005605,15.59746852,384.59648512997137,392.18176091387886,1 45573U 20025AU  26137.87468028  .00027256  00000+0  33930-3 0  9997,2 45573  53.0434  84.2478 0005605  56.6634 303.4914 15.59746852336226
STARLINK-1331,45578,53.0472,0.000665,15.59433656,384.79474120420673,393.7954258753143,1 45578U 20025AZ  26137.83162670  .00062307  00000+0  77312-3 0  9990,2 45578  53.0472  91.3226 0006650  36.5960 323.5505 15.59433656336430
STARLINK-1333,45580,53.1559,0.0003407,15.33211931,463.9048335638363,468.5685898109805,1 45580U 20025BB  26137.29918908  .00028503  00000+0  88391-3 0  9995,2 45580  53.1559 118.6877 0003407  61.2213 298.9131 15.33211931336014
STARLINK-1335,45581,53.1535,0.0004619,15.34710275,458.6218346792184,464.9405511058121,1 45581U 20025BC  26137.35068849  .00019567  00000+0  58289-3 0  9996,2 45581  53.1535 115.4100 0004619  53.6426 306.5002 15.34710275336053
STARLINK-1337,45582,53.0471,0.0007481,15.71327805,350.0640488019235,360.1383197732557,1 45582U 20025BD  26137.84607389  .00050159  00000+0  38870-3 0  9995,2 45582  53.0471  82.3773 0007481  44.9892 315.1730 15.71327805336542
STARLINK-1347,45586,53.0394,0.0005093,15.66115892,366.59453388700695,373.46821819484376,1 45586U 20025BH  26137.06098381  .00045639  00000+0  43893-3 0  9997,2 45586  53.0394  55.8984 0005093  72.4544 287.7027 15.66115892336847
STARLINK-1364,45589,53.0446,0.0005468,15.60538308,382.4023979035501,389.7997686714334,1 45589U 20025BL  26137.88250902  .00025956  00000+0  31389-3 0  9996,2 45589  53.0446  88.3667 0005468  19.6565 340.4658 15.60538308336469
STARLINK-1365,45590,53.0458,0.0005648,15.55517402,396.8203641772561,404.4776808682982,1 45590U 20025BM  26137.37202255  .00039446  00000+0  57087-3 0  9992,2 45590  53.0458 123.6145 0005648  16.1658 343.9532 15.55517402335940
STARLINK-1443,45660,53.1335,0.0004393,15.30661579,470.8271517945541,476.84729634782343,1 45660U 20035D   26137.32270039  .00017501  00000+0  59305-3 0  9994,2 45660  53.1335 106.9378 0004393  32.7668 327.3605 15.30661579329258
STARLINK-1446,45663,53.0229,0.0004554,15.46276447,424.53071926434313,430.7294119076796,1 45663U 20035G   26137.72548407  .00012770  00000+0  26333-3 0  9996,2 45663  53.0229  30.6351 0004554 109.5000 250.6498 15.46276447330341
STARLINK-1448,45665,53.0448,0.0007413,15.65568965,366.5993377769264,376.60650218228784,1 45665U 20035J   26137.85643985  .00037505  00000+0  36975-3 0  9995,2 45665  53.0448  75.9676 0007413  37.6427 322.5105 15.65568965329712
STARLINK-1451,45668,53.0513,0.0002963,15.13165093,524.5089489929751,528.6006693590925,1 45668U 20035M   26137.23742159  .00010443  00000+0  59793-3 0  9998,2 45668  53.0513 115.7585 0002963  47.1861 312.9379 15.13165093329111
STARLINK-1452,45669,53.0278,6.47e-05,15.54986964,401.7518364871494,402.629210868713,1 45669U 20035N   26137.47281552  .00042711  00000+0  62974-3 0  9998,2 45669  53.0278  51.4427 0000647 110.6747 249.4332 15.54986964330036
STARLINK-1453,45670,53.0419,0.0003161,15.66007634,368.2091784051254,372.4755670645691,1 45670U 20035P   26137.82951028  .00040873  00000+0  39572-3 0  9996,2 45670  53.0419  36.4598 0003161 118.5397 241.5936 15.66007634330167
STARLINK-1454,45671,53.0446,0.0003481,15.6415301,373.32478723444365,378.02679169847033,1 45671U 20035Q   26137.84194446  .00088877  00000+0  91415-3 0  9992,2 45671  53.0446  77.0499 0003481  25.8243 334.2944 15.64153010329697
STARLINK-1456,45673,53.0431,0.0006871,15.61984446,377.28055973620394,386.57023748437405,1 45673U 20035S   26137.08705236  .00061486  00000+0  69198-3 0  9995,2 45673  53.0431  75.1085 0006871  70.6676 289.5080 15.61984446329670
STARLINK-1457,45674,53.0322,0.0007636,16.21068383,211.61691916991822,221.68848200065167,1 45674U 20035T   26137.87207178  .01257112  11838-4  57991-3 0  9993,2 45674  53.0322  28.5523 0007636 250.2302 109.7913 16.21068383330356
STARLINK-1458,45675,53.0484,0.0005814,15.53117253,403.6858249606639,411.5763160730612,1 45675U 20035U   26137.56273073  .00048510  00000+0  76354-3 0  9994,2 45675  53.0484  85.9669 0005814  30.0354 330.0988 15.53117253329524
STARLINK-1460,45676,53.156,0.0004188,15.33067791,463.7991098090506,469.5323165616146,1 45676U 20035V   26137.59830959  .00022734  00000+0  71102-3 0  9996,2 45676  53.1560 104.4528 0004188  69.1854 290.9597 15.33067791329274
STARLINK-1392,45677,53.1523,0.0003507,15.36189927,454.9911475154795,459.78558500737654,1 45677U 20035W   26137.33525427  .00024233  00000+0  68579-3 0  9990,2 45677  53.1523 104.8125 0003507  71.0693 289.0690 15.36189927329281
STARLINK-1394,45679,53.0427,0.00075,15.61911262,377.06635547580754,387.2067658167771,1 45679U 20035Y   26137.78952359  .00057134  00000+0  64546-3 0  9995,2 45679  53.0427  61.9099 0007500  77.2371 282.9480 15.61911262329918
STARLINK-1402,45685,53.0451,0.0007613,15.55186695,396.44856295903264,406.7714057173853,1 45685U 20035AE  26137.76398366  .00047116  00000+0  68781-3 0  9996,2 45685  53.0451  51.7614 0007613  99.8808 260.3062 15.55186695330063
STARLINK-1404,45686,53.1573,0.0005186,15.42053721,436.5129993458331,443.58482177226506,1 45686U 20035AF  26137.86647345  .00035285  00000+0  81917-3 0  9992,2 45686  53.1573  84.8553 0005186  84.7450 275.4148 15.42053721329618
STARLINK-1413,45689,53.157,0.000328,15.33066058,464.4257745117002,468.9159684754013,1 45689U 20035AJ  26137.83249882  .00019799  00000+0  62102-3 0  9993,2 45689  53.1570  88.0001 0003280  90.8589 269.2789 15.33066058329480
